{
  "norad_id": 66970,
  "name": "STARLINK-35703",
  "history": [
    {
      "epoch": "2026-03-28T20:50:55.567680",
      "apogee_km": 484.02052167088823,
      "perigee_km": 482.01994544472836,
      "latitude_deg": 36.97896468084529,
      "longitude_deg": -119.60492480010726,
      "semi_major_axis_km": 6861.1572335578085,
      "eccentricity": 0.00014579,
      "inclination_deg": 42.9976,
      "raan_deg": 274.8695,
      "arg_perigee_deg": 265.1423,
      "mean_anomaly_deg": 94.9262,
      "mean_motion_rev_day": 15.27589639
    }
  ]
}